[{"OBJECT_NAME":"STARLINK-31627","OBJECT_ID":"2024-050Q","EPOCH":"2025-10-12T21:07:21.076320","MEAN_MOTION":15.30198487,"ECCENTRICITY":2.921e-5,"INCLINATION":53.1648,"RA_OF_ASC_NODE":147.881,"ARG_OF_PERICENTER":14.3337,"MEAN_ANOMALY":345.7672,"EPHEMERIS_TYPE":0,"CLASSIFICATION_TYPE":"U","NORAD_CAT_ID":59268,"ELEMENT_SET_NO":999,"REV_AT_EPOCH":8791,"BSTAR":0.0010107182,"MEAN_MOTION_DOT":0.00029694,"MEAN_MOTION_DDOT":0},{"OBJECT_NAME":"STARLINK-31609","OBJECT_ID":"2024-050R","EPOCH":"2025-10-13T07:42:56.158848","MEAN_MOTION":15.30188071,"ECCENTRICITY":0.0001302,"INCLINATION":53.1581,"RA_OF_ASC_NODE":145.6585,"ARG_OF_PERICENTER":86.6582,"MEAN_ANOMALY":273.4568,"EPHEMERIS_TYPE":0,"CLASSIFICATION_TYPE":"U","NORAD_CAT_ID":59269,"ELEMENT_SET_NO":999,"REV_AT_EPOCH":8798,"BSTAR":3.265714e-6,"MEAN_MOTION_DOT":-2.62e-6,"MEAN_MOTION_DDOT":0},{"OBJECT_NAME":"STARLINK-31616","OBJECT_ID":"2024-050S","EPOCH":"2025-10-13T01:35:49.686720","MEAN_MOTION":15.30237965,"ECCENTRICITY":0.00010517,"INCLINATION":53.1601,"RA_OF_ASC_NODE":146.909,"ARG_OF_PERICENTER":101.103,"MEAN_ANOMALY":259.0089,"EPHEMERIS_TYPE":0,"CLASSIFICATION_TYPE":"U","NORAD_CAT_ID":59270,"ELEMENT_SET_NO":999,"REV_AT_EPOCH":8794,"BSTAR":-0.00036145588,"MEAN_MOTION_DOT":-0.00011061,"MEAN_MOTION_DDOT":0},{"OBJECT_NAME":"STARLINK-31630","OBJECT_ID":"2024-050T","EPOCH":"2025-10-13T06:29:21.098976","MEAN_MOTION":15.30195089,"ECCENTRICITY":0.00011511,"INCLINATION":53.1594,"RA_OF_ASC_NODE":133.2524,"ARG_OF_PERICENTER":89.5528,"MEAN_ANOMALY":270.5604,"EPHEMERIS_TYPE":0,"CLASSIFICATION_TYPE":"U","NORAD_CAT_ID":59271,"ELEMENT_SET_NO":999,"REV_AT_EPOCH":8815,"BSTAR":1.9415394e-5,"MEAN_MOTION_DOT":2.16e-6,"MEAN_MOTION_DDOT":0},{"OBJECT_NAME":"STARLINK-31623","OBJECT_ID":"2024-050U","EPOCH":"2025-10-12T21:13:14.384928","MEAN_MOTION":15.30318049,"ECCENTRICITY":0.00012211,"INCLINATION":53.1611,"RA_OF_ASC_NODE":147.2019,"ARG_OF_PERICENTER":142.0323,"MEAN_ANOMALY":218.0764,"EPHEMERIS_TYPE":0,"CLASSIFICATION_TYPE":"U","NORAD_CAT_ID":59272,"ELEMENT_SET_NO":999,"REV_AT_EPOCH":8792,"BSTAR":-0.0010590265,"MEAN_MOTION_DOT":-0.00031706,"MEAN_MOTION_DDOT":0},{"OBJECT_NAME":"STARLINK-31595","OBJECT_ID":"2024-050V","EPOCH":"2025-10-13T07:18:37.361376","MEAN_MOTION":15.30195093,"ECCENTRICITY":0.00011344,"INCLINATION":53.1596,"RA_OF_ASC_NODE":145.5668,"ARG_OF_PERICENTER":83.9667,"MEAN_ANOMALY":276.1463,"EPHEMERIS_TYPE":0,"CLASSIFICATION_TYPE":"U","NORAD_CAT_ID":59273,"ELEMENT_SET_NO":999,"REV_AT_EPOCH":8798,"BSTAR":1.9890074e-5,"MEAN_MOTION_DOT":2.3e-6,"MEAN_MOTION_DDOT":0},{"OBJECT_NAME":"STARLINK-31463","OBJECT_ID":"2024-056A","EPOCH":"2025-10-13T04:50:08.499264","MEAN_MOTION":15.275658,"ECCENTRICITY":7.536e-5,"INCLINATION":43.0037,"RA_OF_ASC_NODE":339.6956,"ARG_OF_PERICENTER":298.0998,"MEAN_ANOMALY":61.9777,"EPHEMERIS_TYPE":0,"CLASSIFICATION_TYPE":"U","NORAD_CAT_ID":59296,"ELEMENT_SET_NO":999,"REV_AT_EPOCH":8864,"BSTAR":-2.8713151e-5,"MEAN_MOTION_DOT":-1.052e-5,"MEAN_MOTION_DDOT":0},{"OBJECT_NAME":"STARLINK-31487","OBJECT_ID":"2024-056B","EPOCH":"2025-10-12T20:42:12.350016","MEAN_MOTION":15.27576364,"ECCENTRICITY":7.318e-5,"INCLINATION":43.0044,"RA_OF_ASC_NODE":345.7741,"ARG_OF_PERICENTER":282.6171,"MEAN_ANOMALY":77.4599,"EPHEMERIS_TYPE":0,"CLASSIFICATION_TYPE":"U","NORAD_CAT_ID":59297,"ELEMENT_SET_NO":999,"REV_AT_EPOCH":8866,"BSTAR":-5.723779e-5,"MEAN_MOTION_DOT":-1.836e-5,"MEAN_MOTION_DDOT":0},{"OBJECT_NAME":"STARLINK-31386","OBJECT_ID":"2024-056C","EPOCH":"2025-10-12T13:59:39.834816","MEAN_MOTION":15.27586597,"ECCENTRICITY":0.00010629,"INCLINATION":43.0016,"RA_OF_ASC_NODE":347.113,"ARG_OF_PERICENTER":255.1535,"MEAN_ANOMALY":104.9199,"EPHEMERIS_TYPE":0,"CLASSIFICATION_TYPE":"U","NORAD_CAT_ID":59298,"ELEMENT_SET_NO":999,"REV_AT_EPOCH":8850,"BSTAR":3.8040512e-5,"MEAN_MOTION_DOT":7.85e-6,"MEAN_MOTION_DDOT":0},{"OBJECT_NAME":"STARLINK-31409","OBJECT_ID":"2024-056D","EPOCH":"2025-10-12T20:21:23.087232","MEAN_MOTION":15.27584904,"ECCENTRICITY":0.00021079,"INCLINATION":42.9979,"RA_OF_ASC_NODE":338.7431,"ARG_OF_PERICENTER":283.8675,"MEAN_ANOMALY":76.1942,"EPHEMERIS_TYPE":0,"CLASSIFICATION_TYPE":"U","NORAD_CAT_ID":59299,"ELEMENT_SET_NO":999,"REV_AT_EPOCH":8874,"BSTAR":1.0318566e-5,"MEAN_MOTION_DOT":2.2e-7,"MEAN_MOTION_DDOT":0},{"OBJECT_NAME":"STARLINK-31489","OBJECT_ID":"2024-056E","EPOCH":"2025-10-13T02:10:43.347072","MEAN_MOTION":15.27587398,"ECCENTRICITY":5.763e-5,"INCLINATION":43.002,"RA_OF_ASC_NODE":344.0431,"ARG_OF_PERICENTER":223.5807,"MEAN_ANOMALY":136.4999,"EPHEMERIS_TYPE":0,"CLASSIFICATION_TYPE":"U","NORAD_CAT_ID":59300,"ELEMENT_SET_NO":999,"REV_AT_EPOCH":8858,"BSTAR":-6.9376168e-5,"MEAN_MOTION_DOT":-2.171e-5,"MEAN_MOTION_DDOT":0},{"OBJECT_NAME":"STARLINK-31502","OBJECT_ID":"2024-056F","EPOCH":"2025-10-13T00:26:50.990208","MEAN_MOTION":15.27583556,"ECCENTRICITY":5.175e-5,"INCLINATION":42.9991,"RA_OF_ASC_NODE":337.4299,"ARG_OF_PERICENTER":243.8554,"MEAN_ANOMALY":116.2244,"EPHEMERIS_TYPE":0,"CLASSIFICATION_TYPE":"U","NORAD_CAT_ID":59301,"ELEMENT_SET_NO":999,"REV_AT_EPOCH":8865,"BSTAR":0.00055538971,"MEAN_MOTION_DOT":0.00015054,"MEAN_MOTION_DDOT":0},{"OBJECT_NAME":"STARLINK-31447","OBJECT_ID":"2024-056G","EPOCH":"2025-10-12T14:03:23.241024","MEAN_MOTION":15.27564919,"ECCENTRICITY":0.0001001,"INCLINATION":43.0028,"RA_OF_ASC_NODE":347.1358,"ARG_OF_PERICENTER":250.7179,"MEAN_ANOMALY":109.3564,"EPHEMERIS_TYPE":0,"CLASSIFICATION_TYPE":"U","NORAD_CAT_ID":59302,"ELEMENT_SET_NO":999,"REV_AT_EPOCH":8850,"BSTAR":-5.4556646e-5,"MEAN_MOTION_DOT":-1.762e-5,"MEAN_MOTION_DDOT":0},{"OBJECT_NAME":"STARLINK-31504","OBJECT_ID":"2024-056H","EPOCH":"2025-10-12T20:31:05.906208","MEAN_MOTION":15.27584403,"ECCENTRICITY":9.563e-5,"INCLINATION":43.0021,"RA_OF_ASC_NODE":345.7112,"ARG_OF_PERICENTER":288.5106,"MEAN_ANOMALY":71.5641,"EPHEMERIS_TYPE":0,"CLASSIFICATION_TYPE":"U","NORAD_CAT_ID":59303,"ELEMENT_SET_NO":999,"REV_AT_EPOCH":8854,"BSTAR":-1.9643077e-5,"MEAN_MOTION_DOT":-8.03e-6,"MEAN_MOTION_DDOT":0},{"OBJECT_NAME":"STARLINK-31474","OBJECT_ID":"2024-056J","EPOCH":"2025-10-12T20:28:45.758496","MEAN_MOTION":15.27606118,"ECCENTRICITY":0.00020557,"INCLINATION":43.0064,"RA_OF_ASC_NODE":338.7748,"ARG_OF_PERICENTER":295.3527,"MEAN_ANOMALY":64.7112,"EPHEMERIS_TYPE":0,"CLASSIFICATION_TYPE":"U","NORAD_CAT_ID":59304,"ELEMENT_SET_NO":999,"REV_AT_EPOCH":8862,"BSTAR":-6.8746e-7,"MEAN_MOTION_DOT":-2.82e-6,"MEAN_MOTION_DDOT":0},{"OBJECT_NAME":"STARLINK-31500","OBJECT_ID":"2024-056K","EPOCH":"2025-10-12T11:00:36.165888","MEAN_MOTION":15.27595317,"ECCENTRICITY":1.77e-5,"INCLINATION":42.998,"RA_OF_ASC_NODE":347.8988,"ARG_OF_PERICENTER":310.4031,"MEAN_ANOMALY":49.6805,"EPHEMERIS_TYPE":0,"CLASSIFICATION_TYPE":"U","NORAD_CAT_ID":59305,"ELEMENT_SET_NO":999,"REV_AT_EPOCH":8848,"BSTAR":7.4326637e-5,"MEAN_MOTION_DOT":1.785e-5,"MEAN_MOTION_DDOT":0}]
