STARLINK-31627          
1 59268U 24050Q   25285.88010505  .00029694  00000+0  10107-2 0  9990
2 59268  53.1648 147.8810 0000292  14.3337 345.7672 15.30198487 87917
STARLINK-31609          
1 59269U 24050R   25286.32148332 -.00000262  00000+0  32657-5 0  9999
2 59269  53.1581 145.6585 0001302  86.6582 273.4568 15.30188071 87982
STARLINK-31616          
1 59270U 24050S   25286.06654730 -.00011061  00000+0 -36146-3 0  9991
2 59270  53.1601 146.9090 0001051 101.1030 259.0089 15.30237965 87945
STARLINK-31630          
1 59271U 24050T   25286.27038309  .00000216  00000+0  19415-4 0  9992
2 59271  53.1594 133.2524 0001151  89.5528 270.5604 15.30195089 88155
STARLINK-31623          
1 59272U 24050U   25285.88419427 -.00031706  00000+0 -10590-2 0  9996
2 59272  53.1611 147.2019 0001221 142.0323 218.0764 15.30318049 87927
STARLINK-31595          
1 59273U 24050V   25286.30459909  .00000230  00000+0  19890-4 0  9994
2 59273  53.1596 145.5668 0001134  83.9667 276.1463 15.30195093 87987
STARLINK-31463          
1 59296U 24056A   25286.20148726 -.00001052  00000+0 -28713-4 0  9995
2 59296  43.0037 339.6956 0000753 298.0998  61.9777 15.27565800 88643
STARLINK-31487          
1 59297U 24056B   25285.86264294 -.00001836  00000+0 -57238-4 0  9990
2 59297  43.0044 345.7741 0000731 282.6171  77.4599 15.27576364 88663
STARLINK-31386          
1 59298U 24056C   25285.58309994  .00000785  00000+0  38041-4 0  9998
2 59298  43.0016 347.1130 0001062 255.1535 104.9199 15.27586597 88502
STARLINK-31409          
1 59299U 24056D   25285.84818388  .00000022  00000+0  10319-4 0  9992
2 59299  42.9979 338.7431 0002107 283.8675  76.1942 15.27584904 88745
STARLINK-31489          
1 59300U 24056E   25286.09077948 -.00002171  00000+0 -69376-4 0  9998
2 59300  43.0020 344.0431 0000576 223.5807 136.4999 15.27587398 88587
STARLINK-31502          
1 59301U 24056F   25286.01864572  .00015054  00000+0  55539-3 0  9995
2 59301  42.9991 337.4299 0000517 243.8554 116.2244 15.27583556 88659
STARLINK-31447          
1 59302U 24056G   25285.58568566 -.00001762  00000+0 -54557-4 0  9994
2 59302  43.0028 347.1358 0001001 250.7179 109.3564 15.27564919 88500
STARLINK-31504          
1 59303U 24056H   25285.85492947 -.00000803  00000+0 -19643-4 0  9996
2 59303  43.0021 345.7112 0000956 288.5106  71.5641 15.27584403 88543
STARLINK-31474          
1 59304U 24056J   25285.85330739 -.00000282  00000+0 -68746-6 0  9998
2 59304  43.0064 338.7748 0002055 295.3527  64.7112 15.27606118 88627
STARLINK-31500          
1 59305U 24056K   25285.45875192  .00001785  00000+0  74327-4 0  9999
2 59305  42.9980 347.8988 0000177 310.4031  49.6805 15.27595317 88485
